[{"OBJECT_NAME":"STARLINK-34286","OBJECT_ID":"2025-161W","EPOCH":"2026-03-09T21:50:20.934528","MEAN_MOTION":15.30240937,"ECCENTRICITY":9.405e-5,"INCLINATION":53.1564,"RA_OF_ASC_NODE":293.1737,"ARG_OF_PERICENTER":62.4593,"MEAN_ANOMALY":297.6503,"EPHEMERIS_TYPE":0,"CLASSIFICATION_TYPE":"U","NORAD_CAT_ID":65035,"ELEMENT_SET_NO":999,"REV_AT_EPOCH":3426,"BSTAR":0.0017070651,"MEAN_MOTION_DOT":0.00050608,"MEAN_MOTION_DDOT":0},{"OBJECT_NAME":"DMSP 5D-2 F13 DEB","OBJECT_ID":"1995-015HL","EPOCH":"2026-02-09T02:06:19.247328","MEAN_MOTION":15.12822218,"ECCENTRICITY":0.00117732,"INCLINATION":98.8603,"RA_OF_ASC_NODE":96.8879,"ARG_OF_PERICENTER":223.037,"MEAN_ANOMALY":136.9936,"EPHEMERIS_TYPE":0,"CLASSIFICATION_TYPE":"U","NORAD_CAT_ID":42294,"ELEMENT_SET_NO":999,"REV_AT_EPOCH":55633,"BSTAR":0.010466292,"MEAN_MOTION_DOT":0.00188804,"MEAN_MOTION_DDOT":0}]
